[{"OBJECT_NAME":"STARLINK-3346","OBJECT_ID":"2022-001U","EPOCH":"2026-03-09T14:12:56.300256","MEAN_MOTION":15.08837433,"ECCENTRICITY":0.0001325,"INCLINATION":53.2177,"RA_OF_ASC_NODE":169.4427,"ARG_OF_PERICENTER":91.928,"MEAN_ANOMALY":268.1864,"EPHEMERIS_TYPE":0,"CLASSIFICATION_TYPE":"U","NORAD_CAT_ID":50821,"ELEMENT_SET_NO":999,"REV_AT_EPOCH":23039,"BSTAR":4.058e-5,"MEAN_MOTION_DOT":3.58e-6,"MEAN_MOTION_DDOT":0},{"OBJECT_NAME":"YUNYAO-1 43","OBJECT_ID":"2025-059A","EPOCH":"2026-03-09T23:54:24.516576","MEAN_MOTION":15.10329109,"ECCENTRICITY":0.00157026,"INCLINATION":97.608,"RA_OF_ASC_NODE":250.9377,"ARG_OF_PERICENTER":132.1084,"MEAN_ANOMALY":228.1483,"EPHEMERIS_TYPE":0,"CLASSIFICATION_TYPE":"U","NORAD_CAT_ID":63344,"ELEMENT_SET_NO":999,"REV_AT_EPOCH":5332,"BSTAR":0.00032498885,"MEAN_MOTION_DOT":5.279e-5,"MEAN_MOTION_DDOT":0}]
